IRIDIUM 155             
1 43573U 18061E   24119.44788958  .00000756  00000+0  26278-3 0  9993
2 43573  86.4016  22.5425 0002249  80.6848 279.4602 14.34216254301590
IRIDIUM 154             
1 43574U 18061F   24119.42887084  .00000352  00000+0  11858-3 0  9992
2 43574  86.4017  22.6455 0002401  89.5391 270.6080 14.34217036301645
IRIDIUM 163             
1 43575U 18061G   24119.47960851  .00000046  00000+0  93591-5 0  9998
2 43575  86.4015  22.5640 0002385  85.1828 274.9640 14.34217124301622
IRIDIUM 156             
1 43576U 18061H   24119.45424142  .00000693  00000+0  24024-3 0  9996
2 43576  86.4017  22.5810 0002132  83.8515 276.2924 14.34219386301613
IRIDIUM 164             
1 43577U 18061J   24119.43520891  .00000423  00000+0  14393-3 0  9992
2 43577  86.4017  22.6170 0002012  91.2827 268.8600 14.34221160301655
IRIDIUM 159             
1 43578U 18061K   24119.47326930  .00000661  00000+0  22906-3 0  9998
2 43578  86.4016  22.5545 0002219  90.6038 269.5412 14.34217803301621
IRIDIUM 180             
1 43922U 19002A   24119.61228577  .00000011  00000+0 -32842-5 0  9993
2 43922  86.3942 319.4043 0002251  90.9630 269.1823 14.34212071277254
IRIDIUM 176             
1 43923U 19002B   24119.56938657  .00000702  00000+0  10740-3 0  9992
2 43923  86.6069 319.4478 0002394  94.0914 266.0577 14.72232749284546
IRIDIUM 168             
1 43924U 19002C   24119.60594419  .00000156  00000+0  48760-4 0  9999
2 43924  86.3943 319.4623 0002120  91.6219 268.5219 14.34214244277231
IRIDIUM 173             
1 43925U 19002D   24119.59326235  .00000156  00000+0  48714-4 0  9996
2 43925  86.3942 319.3887 0002204  90.6838 269.4611 14.34216194277211
IRIDIUM 169             
1 43926U 19002E   24119.60160307  .00000695  00000+0  22078-3 0  9997
2 43926  86.4250 350.9966 0003963  61.7740 298.3858 14.38603574278141
IRIDIUM 172             
1 43927U 19002F   24119.58692070  .00000124  00000+0  37065-4 0  9992
2 43927  86.3942 319.3968 0002140  91.9476 268.1964 14.34216015277224
IRIDIUM 175             
1 43928U 19002G   24119.56362083  .00000863  00000+0  13288-3 0  9999
2 43928  86.1465 295.3858 0002369  88.9294 271.2194 14.72241656284534
IRIDIUM 171             
1 43929U 19002H   24119.56789028  .00000150  00000+0  46479-4 0  9990
2 43929  86.3953 319.6248 0001928  90.0692 270.0725 14.34215632277215
IRIDIUM 170             
1 43930U 19002J   24119.57556703  .00000671  00000+0  10251-3 0  9991
2 43930  86.6069 319.4498 0002328  86.6513 273.4971 14.72233117284556
IRIDIUM 167             
1 43931U 19002K   24119.56154825  .00000086  00000+0  23784-4 0  9996
2 43931  86.3942 319.4228 0002123  89.7677 270.3762 14.34215456277216
IRIDIUM 181             
1 56726U 23068S   24119.61519838  .00000766  00000+0  22028-3 0  9998
2 56726  86.8681  10.7042 0002063  83.0492 277.0944 14.43601508 49981
IRIDIUM 177             
1 56727U 23068T   24119.60567258  .00002255  00000+0  29343-3 0  9999
2 56727  86.1976 338.9137 0001964  94.7459 265.3986 14.80212037 51045
IRIDIUM 174             
1 56728U 23068U   24119.60021964  .00002453  00000+0  31923-3 0  9996
2 56728  86.1985 339.0159 0002693  84.4874 275.6655 14.80237698 51046
IRIDIUM 178             
1 56729U 23068V   24119.59483176  .00002466  00000+0  32117-3 0  9992
2 56729  86.5806 354.1258 0003132  85.9428 274.2151 14.80212237 51049
IRIDIUM 179             
1 56730U 23068W   24119.38655613  .00003239  00000+0  42282-3 0  9991
2 56730  86.6823 357.7197 0002817  88.2873 271.8671 14.80223213 51014
